SORAYA                  
1 58817U 24015A   24039.59649262  .00000285  00000+0  11947-3 0  9991
2 58817  64.5135  56.6335 0011210 257.4308 102.5523 14.41911622  2794
QAEM 100 R/B            
1 58818U 24015B   24039.43924356  .00000486  00000+0  17565-3 0  9990
2 58818  64.5027  56.9417 0012350 289.9379  70.0376 14.43308798  2772
QAEM 100 DEB            
1 58819U 24015C   24028.55774234  .00054227  00000+0  15623-1 0  9993
2 58819  64.4782  88.5570 0010930 314.2129  45.8058 14.44281846  1162
2024-016A               
1 58820U 24016A   24038.90469384  .00016818  00000+0  99417-3 0  9992
2 58820  97.5232 114.9911 0013853 227.3039 132.7025 15.11466430  2389
2024-016B               
1 58821U 24016B   24039.56721563  .00013827  00000+0  82040-3 0  9997
2 58821  97.5230 115.6412 0013790 225.0809 134.9303 15.11376789  2472
2024-016C               
1 58822U 24016C   24039.56700005  .00011650  00000+0  69203-3 0  9994
2 58822  97.5221 115.6398 0014093 225.1965 134.8120 15.11375081  2477
2024-016D               
1 58823U 24016D   24039.56507549  .00010776  00000+0  63757-3 0  9999
2 58823  97.5196 115.6371 0014003 228.8986 131.1036 15.11541265  2479
2024-016E               
1 58824U 24016E   24039.58640743  .00084124  40655-5  62948-3 0  9991
2 58824  97.6676 117.0436 0183710 325.2557  33.6806 15.53483292  2539
2024-016F               
1 58825U 24016F   24039.72089424  .00005001  00000+0  29883-3 0  9993
2 58825  97.5213 115.7938 0013772 223.7506 254.5876 15.11462916  2427
STARLINK-31233          
1 58826U 24017A   24037.41667824 -.01712215  00000+0 -17534-1 0  9998
2 58826  53.1606 154.2213 0001248  51.9324 146.8545 15.67568809  3235
STARLINK-31271          
1 58827U 24017B   24037.25001157 -.01687602  00000+0 -17725-1 0  9995
2 58827  53.1609 154.9270 0000827  84.5566 310.1875 15.66908168  3227
STARLINK-31222          
1 58828U 24017C   24039.58334491 -.01740908  00000+0 -24162-1 0  9996
2 58828  53.1600 143.6345 0001103  71.1390  91.6811 15.59453375  3590
STARLINK-31258          
1 58829U 24017D   24039.58334491 -.01741454  00000+0 -24172-1 0  9995
2 58829  53.1602 143.6329 0001017  69.9501  93.7333 15.59452502  3579
STARLINK-31253          
1 58830U 24017E   24036.58334491 -.01735502  00000+0 -15630-1 0  9990
2 58830  53.1592 158.3211 0001222  72.5025  99.7395 15.70690518  3108
STARLINK-31232          
1 58831U 24017F   24039.58334491 -.01740447  00000+0 -24158-1 0  9993
2 58831  53.1601 143.6290 0001215  76.0657  89.3462 15.59448957  3572
STARLINK-31263          
1 58832U 24017G   24036.58334491 -.01732950  00000+0 -15605-1 0  9998
2 58832  53.1591 158.3177 0001488  61.1800 112.8218 15.70685767  3201
STARLINK-31175          
1 58833U 24017H   24037.33334491 -.01699693  00000+0 -16131-1 0  9994
2 58833  53.1619 154.3553 0001334  85.5209 138.9009 15.69376150  3220
STARLINK-31171          
1 58834U 24017J   24037.75001157 -.01652803  00000+0 -18246-1 0  9992
2 58834  53.1609 152.4302 0000663  49.4130 309.1364 15.65617012  3303
STARLINK-31246          
1 58835U 24017K   24039.58334491 -.01739710  00000+0 -24153-1 0  9993
2 58835  53.1601 143.6220 0001147  70.3421  98.5253 15.59442634  3586
STARLINK-31251          
1 58836U 24017L   24037.08334491 -.01706821  00000+0 -16610-1 0  9993
2 58836  53.1611 155.8427 0001191  49.9303  75.6071 15.68790388  3296
STARLINK-31172          
1 58837U 24017M   24039.58334491 -.01729212  00000+0 -18674-1 0  9992
2 58837  53.1626 143.2077 0001585  24.4367 351.9753 15.66302058  3579
STARLINK-31249          
1 58838U 24017N   24037.25001157 -.01683002  00000+0 -16785-1 0  9992
2 58838  53.1605 155.0190 0000727  78.3226 269.7177 15.68157842  3222
STARLINK-31250          
1 58839U 24017P   24039.58334491 -.01741198  00000+0 -24179-1 0  9998
2 58839  53.1601 143.6144 0001351  80.6015  91.7215 15.59437643  3548
STARLINK-31248          
1 58840U 24017Q   24036.75001157 -.01671705  00000+0 -15414-1 0  9994
2 58840  53.1602 157.4782 0001067  50.8637 353.8086 15.70013822  3231
STARLINK-31236          
1 58841U 24017R   24036.75001157 -.01667047  00000+0 -15364-1 0  9993
2 58841  53.1603 157.4806 0001403  23.7997  19.9947 15.70012414  3144
STARLINK-31228          
1 58842U 24017S   24036.66667824 -.01708862  00000+0 -15585-1 0  9999
2 58842  53.1591 157.8880 0000952  59.2853 234.9325 15.70345204  3134
STARLINK-31280          
1 58843U 24017T   24037.08334491 -.01718791  00000+0 -16743-1 0  9997
2 58843  53.1594 155.8308 0001011  65.8477  64.9449 15.68791722  3206
STARLINK-31269          
1 58844U 24017U   24039.58334491 -.01739565  00000+0 -24164-1 0  9993
2 58844  53.1602 143.6018 0001338  76.1639 102.2065 15.59426589  3562
STARLINK-31264          
1 58845U 24017V   24039.58334491 -.01739462  00000+0 -24161-1 0  9997
2 58845  53.1599 143.6042 0001364  76.3511 101.1554 15.59427864  3563
STARLINK-31273          
1 58846U 24017W   24039.58334491 -.01739375  00000+0 -24158-1 0  9997
2 58846  53.1602 143.6056 0001381  71.0133 105.6290 15.59429486  3596
STARLINK-31262          
1 58847U 24017X   24039.58334491 -.01736722  00000+0 -24123-1 0  9993
2 58847  53.1601 143.6003 0001319  71.8442 107.3906 15.59423365  3593
AAC-HIS-SAT3            
1 58848U 23174DH  24039.35156131  .00007481  00000+0  51396-3 0  9999
2 58848  97.4507 114.8471 0014446  97.0579 263.2292 15.06148051 13987
2024-018A               
1 58849U 24018A   24039.42204222  .00001932  00000+0  24109-3 0  9998
2 58849  58.6915 348.2431 0457569 175.4156 185.1287 14.32763800  1647
2024-018B               
1 58850U 24018B   24039.41658305  .00003143  00000+0  37303-3 0  9990
2 58850  58.7000 348.2265 0454458 175.8845 184.6127 14.33459877  1636
2024-018C               
1 58851U 24018C   24039.41204592  .00001594  00000+0  20270-3 0  9999
2 58851  58.6882 348.2000 0451783 175.3325 185.2138 14.34011978  1644
2024-018D               
1 58852U 24018D   24039.34325412  .00005778  00000+0  65991-3 0  9994
2 58852  58.6782 348.4363 0452421 174.8180 185.7769 14.33944534  1637
STARLINK-31238          
1 58853U 24019A   24039.58334491 -.01048714  00000+0 -74852-2 0  9994
2 58853  43.0033 217.6438 0001490 261.7039 351.5894 15.75323891  2581
STARLINK-31158          
1 58854U 24019B   24039.58334491 -.01077320  00000+0 -77780-2 0  9993
2 58854  43.0028 217.6378 0001318 264.6396 350.8833 15.75133572  2698
STARLINK-31237          
1 58855U 24019C   24039.58334491 -.01064464  00000+0 -76434-2 0  9994
2 58855  43.0032 217.6406 0001507 257.9052 356.5264 15.75224847  2787
STARLINK-31244          
1 58856U 24019D   24039.58334491 -.01087490  00000+0 -78864-2 0  9998
2 58856  43.0031 217.6349 0001305 260.8568 355.7115 15.75057082  2730
STARLINK-31216          
1 58857U 24019E   24039.58334491 -.01219567  00000+0 -71581-2 0  9990
2 58857  43.0035 217.2808 0001425 266.6033 130.8439 15.80040364  2737
STARLINK-31226          
1 58858U 24019F   24039.58334491 -.01091065  00000+0 -79868-2 0  9998
2 58858  43.0030 217.6296 0001466 255.8623   2.8364 15.74851424  2890
STARLINK-31197          
1 58859U 24019G   24039.58334491 -.01062351  00000+0 -77893-2 0  9991
2 58859  43.0029 217.6268 0001437 265.4223 354.2986 15.74746381  2898
STARLINK-31213          
1 58860U 24019H   24039.58334491 -.01291591  00000+0 -86560-2 0  9994
2 58860  43.0037 217.5515 0001475 259.7009  30.1587 15.76852871  2894
STARLINK-31199          
1 58861U 24019J   24039.58334491 -.00838203  00000+0 -61741-2 0  9995
2 58861  43.0029 217.6217 0001283 264.4872 357.2667 15.74462881  2892
STARLINK-31200          
1 58862U 24019K   24039.58334491 -.00692212  00000+0 -50421-2 0  9997
2 58862  43.0028 217.6191 0001467 261.9490   0.7996 15.74315035  2898
STARLINK-31149          
1 58863U 24019L   24039.58334491 -.00527144  00000+0 -37877-2 0  9999
2 58863  43.0026 217.6163 0001500 256.9146   6.8047 15.74176760  2890
STARLINK-31242          
1 58864U 24019M   24039.58334491 -.00351232  00000+0 -24860-2 0  9991
2 58864  43.0026 217.6143 0001502 260.0212   4.6633 15.74038290  2893
STARLINK-31223          
1 58865U 24019N   24039.58334491 -.00198305  00000+0 -13833-2 0  9990
2 58865  43.0025 217.6118 0001561 250.0876  15.5307 15.73935486  2739
STARLINK-31219          
1 58866U 24019P   24039.58334491 -.00083174  00000+0 -57241-3 0  9990
2 58866  43.0021 217.6092 0001486 256.5047  10.0319 15.73857643  2645
STARLINK-31198          
1 58867U 24019Q   24039.58334491 -.01211962  00000+0 -77884-2 0  9994
2 58867  43.0033 217.3885 0001390 267.0541  87.3028 15.78048776  2644
STARLINK-31196          
1 58868U 24019R   24039.58334491  .00009157  00000+0  66057-4 0  9995
2 58868  43.0018 217.6041 0002011 270.1988 358.1276 15.73800674  2648
STARLINK-31203          
1 58869U 24019S   24039.58334491  .00038349  00000+0  26558-3 0  9992
2 58869  43.0021 217.6023 0001945 237.3687  31.8354 15.73789421  2883
STARLINK-31201          
1 58870U 24019T   24039.58334491  .00059176  00000+0  40708-3 0  9998
2 58870  43.0018 217.5997 0002091 261.5121   8.5612 15.73788023  2677
STARLINK-31214          
1 58871U 24019U   24039.58334491  .00087638  00000+0  59958-3 0  9990
2 58871  43.0023 217.5977 0001516 245.9411  25.0065 15.73778140  2676
STARLINK-31215          
1 58872U 24019V   24039.58334491 -.00009101  00000+0 -59296-4 0  9998
2 58872  43.0023 217.5953 0002871 252.8775  18.9579 15.73818016  2720
STARLINK-31177          
1 58873U 24019W   24039.58334491 -.00037637  00000+0 -25611-3 0  9997
2 58873  43.0020 217.5934 0002265 249.6134  23.1004 15.73831629  2880
STARLINK-30945          
1 58874U 24019X   24039.58334491 -.01209883  00000+0 -76189-2 0  9998
2 58874  43.0034 217.4242 0001397 266.7002  73.5912 15.78489167  2895
